SKYSAT-A                
1 39418U 13066C   23269.73377943  .00006286  00000+0  47201-3 0  9994
2 39418  97.5252 332.8373 0026910 123.9616 236.4172 15.02666243538604
SKYSAT-B                
1 40072U 14037D   23269.70566899  .00002292  00000+0  28990-3 0  9995
2 40072  98.3455 164.8773 0004760 254.5947 105.4740 14.82896608498316
SKYSAT-C1               
1 41601U 16040C   23269.75188847  .00026151  00000+0  64979-3 0  9995
2 41601  97.1029 337.3437 0001994 130.5455 229.5965 15.40292226405705
SKYSAT-C4               
1 41771U 16058B   23270.09221441  .00018528  00000+0  50073-3 0  9998
2 41771  97.0557 325.1003 0004852 146.3469 213.8086 15.37766635392721
SKYSAT-C5               
1 41772U 16058C   23270.37044456  .00017188  00000+0  51039-3 0  9993
2 41772  97.2032 326.6583 0001646  53.1339 307.0055 15.34847691391168
SKYSAT-C2               
1 41773U 16058D   23270.18081665  .00004377  00000+0  13358-3 0  9994
2 41773  97.0562 325.4159 0003113 304.3014  55.7935 15.34410380392743
SKYSAT-C3               
1 41774U 16058E   23270.12250277  .00027038  00000+0  59070-3 0  9996
2 41774  97.0566 328.7710 0009375  91.9361 268.2962 15.44110047392960
SKYSAT-C11              
1 42987U 17068A   23270.33381809  .00020294  00000+0  61350-3 0  9995
2 42987  97.3324  32.9095 0003759 241.0706 119.0160 15.34245744330184
SKYSAT-C10              
1 42988U 17068B   23269.86955635  .00029723  00000+0  72720-3 0  9995
2 42988  97.3390  33.1257 0001055 264.8290  95.2836 15.40741380330144
SKYSAT-C9               
1 42989U 17068C   23270.14584190  .00019837  00000+0  67853-3 0  9999
2 42989  97.3331  31.9117 0029829 182.9412 177.1658 15.29857378330364
SKYSAT-C8               
1 42990U 17068D   23270.31602510  .00017303  00000+0  60270-3 0  9999
2 42990  97.3417  33.6090 0004851  87.9702 272.2094 15.29717511330202
SKYSAT-C7               
1 42991U 17068E   23270.10515232  .00018660  00000+0  64694-3 0  9992
2 42991  97.3414  33.6130 0005589 114.1166 246.0660 15.29851795330189
SKYSAT-C6               
1 42992U 17068F   23270.09902220  .00027882  00000+0  68586-3 0  9998
2 42992  97.3440  34.4390 0002960 268.9830  91.1077 15.40586184330217
FLOCK 3S-1              
1 43769U 18099M   23269.71019387  .00018079  00000+0  13569-2 0  9994
2 43769  97.5470 327.8523 0016059 153.3002 206.9053 15.02578629262839
SKYSAT-C12              
1 43797U 18099AR  23270.09854647  .00014115  00000+0  38953-3 0  9996
2 43797  97.0650 327.1343 0002775 296.2520  63.8440 15.37181563269247
SKYSAT-C13              
1 43802U 18099AW  23270.15753185  .00029388  00000+0  65665-3 0  9993
2 43802  97.0916 328.7992 0012470 129.2225 231.0133 15.43389618268847
FLOCK 4P-11             
1 44809U 19081F   23269.71529269  .00063079  00000+0  10923-2 0  9998
2 44809  97.3429 341.4525 0006227 352.5524   7.5634 15.50690460213555
FLOCK 4P-7              
1 44816U 19081N   23270.18855968  .00055147  00000+0  93183-3 0  9994
2 44816  97.3456 342.5428 0004911 344.1458  15.9639 15.51424391213656
FLOCK 4P-5              
1 44818U 19081Q   23269.96538570  .00054048  00000+0  98095-3 0  9993
2 44818  97.3438 341.4766 0005637 354.5332   5.5856 15.49396628213567
SKYSAT-C14              
1 45788U 20038BL  23270.05492084  .00039214  00000+0  77412-3 0  9993
2 45788  52.9803 230.3313 0009777 288.2604  71.7337 15.46753199187213
SKYSAT-C16              
1 45789U 20038BM  23270.06643374  .00050944  00000+0  78389-3 0  9992
2 45789  52.9819 220.4349 0001047 333.2613  26.8341 15.53735464187346
SKYSAT-C15              
1 45790U 20038BN  23270.08423476  .00033188  00000+0  74340-3 0  9999
2 45790  52.9804 231.1755 0004909 312.1115  47.9472 15.43152042187191
SKYSAT-C17              
1 46179U 20057BQ  23270.34774573  .00062145  00000+0  71263-3 0  9994
2 46179  52.9798 307.6310 0010448  85.6819 274.5387 15.61456777176710
SKYSAT-C19              
1 46235U 20057BS  23270.35555635  .00076059  00000+0  75878-3 0  9999
2 46235  52.9760 299.2913 0008867  64.9285 295.2648 15.64949553176864
FLOCK 4V-11             
1 46285U 20061P   23270.41909163  .00019286  00000+0  68241-3 0  9990
2 46285  97.3931 338.6326 0004060  74.0710 286.0977 15.29186893169477
FLOCK 4V-14             
1 46286U 20061Q   23270.12602112  .00021176  00000+0  74202-3 0  9998
2 46286  97.3936 338.4329 0003787  69.8290 290.3357 15.29487192169436
FLOCK 4V-8              
1 46288U 20061S   23269.74315467  .00024829  00000+0  87740-3 0  9999
2 46288  97.3934 337.9876 0003463  85.6094 274.5542 15.29179463169288
FLOCK 4V-6              
1 46289U 20061T   23270.18372017  .00013579  00000+0  53252-3 0  9995
2 46289  97.3987 337.7486 0003703 118.4172 241.7440 15.25864232169386
FLOCK 4V-5              
1 46290U 20061U   23270.18964264  .00083587  00000+0  27987-2 0  9999
2 46290  97.3928 335.9657 0002249 139.9484 220.1923 15.30615245169270
FLOCK 4V-7              
1 46291U 20061V   23270.16803292  .00061763  00000+0  17310-2 0  9992
2 46291  97.3930 339.2905 0002001 115.7607 244.3844 15.36381244169389
FLOCK 4V-10             
1 46296U 20061AA  23269.99015836  .00025312  00000+0  89085-3 0  9994
2 46296  97.3944 338.5303 0001995  64.9723 295.1724 15.29311685169383
FLOCK 4V-13             
1 46297U 20061AB  23270.17263442  .00018819  00000+0  66644-3 0  9995
2 46297  97.3935 338.7414 0001420  68.5499 291.5893 15.29170895169396
FLOCK 4V-1              
1 46313U 20061AT  23269.95425694  .00071720  00000+0  21114-2 0  9999
2 46313  97.3940 339.3891 0002433  32.1370 328.0021 15.34788198169427
FLOCK 4V-4              
1 46314U 20061AU  23270.19534290  .00227196  00000+0  36532-2 0  9991
2 46314  97.3892 341.2800 0001889 263.9766  96.1271 15.52179925169627
FLOCK 4V-16             
1 46527U 20061BD  23269.99870384  .00058028  00000+0  11335-2 0  9990
2 46527  97.3418 343.4425 0002316 239.0357 121.0666 15.47275661166283
FLOCK 4V-15             
1 46528U 20061BE  23270.01254676  .00046868  00000+0  96811-3 0  9998
2 46528  97.3404 343.6252 0000967 296.9460  63.1690 15.45698648166663
FLOCK 4V-17             
1 46529U 20061BF  23270.18841463  .00043441  00000+0  87517-3 0  9990
2 46529  97.3389 343.4418 0000967 273.0671  87.0468 15.46447821165896
FLOCK 4V-18             
1 46597U 20061BG  23269.76156761  .00053040  00000+0  10822-2 0  9997
2 46597  97.3495 343.9672 0002784 256.4180 103.6759 15.46027360165187
FLOCK 4V-19             
1 46609U 20061BH  23269.73191565  .00043017  00000+0  89415-3 0  9997
2 46609  97.3354 342.5409 0000523 196.9554 163.1677 15.45534443164745
FLOCK 4V-20             
1 46612U 20061BJ  23270.17890682  .00017548  00000+0  56205-3 0  9998
2 46612  97.3524 340.4534 0002955 275.1472  84.9432 15.32435842164056
FLOCK 4V-22             
1 46735U 20061BL  23269.71678750  .00274096  00000+0  26524-2 0  9995
2 46735  97.3259 341.2928 0007606 234.3360 125.7193 15.65518135163054
FLOCK 4V-23             
1 46737U 20061BM  23269.73148433  .00238704  00000+0  25758-2 0  9993
2 46737  97.3321 341.9034 0006877 234.6185 125.4431 15.62855003162964
FLOCK 4V-24             
1 46738U 20061BN  23270.19238425  .00049255  00000+0  10008-2 0  9990
2 46738  97.3490 344.4323 0002058 286.6280  73.4743 15.46168556162668
FLOCK 4V-25             
1 46812U 20061BP  23270.15464514  .00048070  00000+0  96590-3 0  9994
2 46812  97.3359 343.1879 0002222 215.0192 145.0912 15.46499593162301
FLOCK 4E'-1             
1 46813U 20077A   23270.17077677  .00135408  00000+0  19032-2 0  9991
2 46813  97.3536 337.6528 0006392 178.1868 181.9411 15.56204287161991
FLOCK 4E'-7             
1 46814U 20077B   23270.16357885  .00038133  00000+0  73066-3 0  9998
2 46814  97.3579 337.4091 0006867 181.1575 178.9660 15.47908566161979
FLOCK 4E'-9             
1 46815U 20077C   23270.41464800  .00200270  00000+0  33373-2 0  9992
2 46815  97.3514 333.0425 0008848 197.4121 162.6829 15.51240599161731
FLOCK 4E'-8             
1 46816U 20077D   23269.74313753  .00044605  00000+0  84209-3 0  9990
2 46816  97.3609 338.5524 0007493 151.9110 208.2546 15.48297572161995
FLOCK 4E'-5             
1 46817U 20077E   23269.74979832  .00048893  00000+0  93939-3 0  9990
2 46817  97.3591 337.7976 0007676 162.9826 197.1683 15.47768744161943
FLOCK 4E'-3             
1 46819U 20077G   23269.99799676  .00048996  00000+0  93892-3 0  9997
2 46819  97.3572 337.7304 0008066 159.6690 200.4883 15.47840263161986
FLOCK 4E'-2             
1 46820U 20077H   23270.13951626  .00279184  00000+0  25180-2 0  9991
2 46820  97.3578 338.0378 0008989 191.2423 168.8638 15.67252791161967
FLOCK 4E'-4             
1 46821U 20077J   23270.14988487  .00331705  00000+0  42572-2 0  9990
2 46821  97.3556 335.5139 0008806 186.1985 173.9164 15.57973346161792
FLOCK 4E'-6             
1 46822U 20077K   23269.69745420  .00283580  00000+0  44646-2 0  9998
2 46822  97.3544 333.3098 0008140 190.2437 169.8651 15.52545168161695
FLOCK 4V-26             
1 46825U 20061BQ  23269.75947243  .00307343  00000+0  24702-2 0  9993
2 46825  97.3456 344.6507 0004731 206.7286 153.3733 15.70031763161833
FLOCK 4S-22             
1 47452U 21006AR  23270.05289988  .00025391  00000+0  78614-3 0  9992
2 47452  97.3813 328.8539 0008688  76.5604 283.6606 15.33412656148326
FLOCK 4S-21             
1 47456U 21006AV  23270.06138520  .00029275  00000+0  90530-3 0  9998
2 47456  97.3804 328.9162 0008692  78.5092 281.7126 15.33421513148329
FLOCK 4S-11             
1 47462U 21006BB  23270.39794114  .00010706  00000+0  49471-3 0  9995
2 47462  97.3792 322.6899 0008527 110.7463 249.4687 15.20327495147971
FLOCK 4S-33             
1 47469U 21006BJ  23270.09399694  .00024721  00000+0  77446-3 0  9998
2 47469  97.3755 327.9716 0005416  87.1363 273.0499 15.33064284148303
FLOCK 4S-12             
1 47471U 21006BL  23270.15408171  .00026672  00000+0  82607-3 0  9991
2 47471  97.3777 328.4497 0007087  95.3213 264.8838 15.33404631148313
FLOCK 4S-13             
1 47472U 21006BM  23270.17025757  .00030306  00000+0  92258-3 0  9991
2 47472  97.3797 328.9028 0006839  87.6485 272.5540 15.33927556148323
